[{"OBJECT_NAME":"STARLINK-32447","OBJECT_ID":"2024-175U","EPOCH":"2026-03-09T14:55:07.415904","MEAN_MOTION":15.30189239,"ECCENTRICITY":9.63e-5,"INCLINATION":53.1599,"RA_OF_ASC_NODE":194.3175,"ARG_OF_PERICENTER":82.6772,"MEAN_ANOMALY":277.4338,"EPHEMERIS_TYPE":0,"CLASSIFICATION_TYPE":"U","NORAD_CAT_ID":61261,"ELEMENT_SET_NO":999,"REV_AT_EPOCH":8144,"BSTAR":2.0079e-5,"MEAN_MOTION_DOT":2.36e-6,"MEAN_MOTION_DDOT":0},{"OBJECT_NAME":"OBJECT H","OBJECT_ID":"2022-023H","EPOCH":"2026-03-09T22:57:41.313888","MEAN_MOTION":15.21889274,"ECCENTRICITY":0.00933376,"INCLINATION":63.6345,"RA_OF_ASC_NODE":356.5929,"ARG_OF_PERICENTER":305.1945,"MEAN_ANOMALY":54.0457,"EPHEMERIS_TYPE":0,"CLASSIFICATION_TYPE":"U","NORAD_CAT_ID":51953,"ELEMENT_SET_NO":999,"REV_AT_EPOCH":22114,"BSTAR":0.00043867493,"MEAN_MOTION_DOT":0.00011084,"MEAN_MOTION_DDOT":0}]
